ATLAS CENTAUR R/B       
1 06155U 72065B   26079.50405770  .00001239  00000+0  17195-3 0  9999
2 06155  35.0005 242.3754 0032868 101.2203 259.2194 14.77716471842860
SL-8 R/B                
1 08459U 75112B   26079.49342535  .00000221  00000+0  81220-4 0  9992
2 08459  74.0637 359.0398 0014451  87.7386 272.5423 14.38209812633427
SL-3 R/B                
1 10114U 77057B   26079.59525089  .00012775  00000+0  26547-3 0  9998
2 10114  97.5783 251.9996 0006329 238.5013 121.5617 15.45788565670012
SEASAT 1                
1 10967U 78064A   26079.42529262  .00000183  00000+0  89575-4 0  9993
2 10967 108.0087 148.0263 0002501 280.9211  79.1653 14.46168493508060
SL-14 R/B               
1 11267U 79011B   26079.37868845  .00000550  00000+0  51714-4 0  9999
2 11267  82.5204  86.4247 0016716  27.1182 333.0907 14.91920753530377
SL-8 R/B                
1 11574U 79089B   26079.49618924  .00000154  00000+0  54624-4 0  9992
2 11574  74.0673  71.0372 0016986 242.5200 117.4230 14.42356794437661
SL-14 R/B               
1 11672U 80005B   26079.33163779  .00000459  00000+0  43855-4 0  9999
2 11672  82.5124 297.1403 0016960 124.7812 235.5007 14.90941572478074
SL-8 R/B                
1 12139U 81003B   26078.99953647  .00017956  00000+0  45513-3 0  9991
2 12139  82.9357 280.4886 0261431 142.7040 219.2671 15.11391095316231
SL-3 R/B                
1 12465U 81046B   26079.49061142  .00008424  00000+0  19415-3 0  9998
2 12465  81.2279 276.7701 0018708 344.5158  15.5510 15.42241141440092
SL-3 R/B                
1 12904U 81103B   26079.62392289  .00005652  00000+0  24966-3 0  9991
2 12904  81.1606 200.6055 0012433 247.1399 112.8520 15.21499897974897
SL-3 R/B                
1 13068U 82013B   26079.56178833  .00003599  00000+0  15489-3 0  9992
2 13068  81.1749 148.0286 0023219 141.4225 218.8672 15.22113028406004
SL-3 R/B                
1 13154U 82039B   26079.58978289  .00002305  00000+0  13857-3 0  9992
2 13154  81.1575 203.3942 0029182 288.6331  71.1726 15.10139992383287
